CTC2_L_00298016-03
1 10062U 22735BW  26075.70043981  .00000000  00000+0  00000-0 0  9999
2 10062  95.0000 180.0000 0000000   0.0000   0.0000 13.81096544    16
CTC2_L_00298016-04
1 10063U 25563VO  26075.70043981  .00000000  00000+0  00000-0 0  9992
2 10063  95.0000 180.0000 0000000   0.0000  90.0000 13.81096544    16
CTC2_L_00298017-01
1 10064U 23464NS  26075.70043981  .00000000  00000+0  00000-0 0  9991
2 10064  95.0000 192.0000 0000000   0.0000 192.0000 13.81096544    13
CTC2_L_00298017-02
1 10065U 23480CW  26075.70043981  .00000000  00000+0  00000-0 0  9990
2 10065  95.0000 192.0000 0000000   0.0000 282.0000 13.81096544    14
CTC2_L_00298017-03
1 10066U 23311SI  26075.70043981  .00000000  00000+0  00000-0 0  9994
2 10066  95.0000 192.0000 0000000   0.0000  12.0000 13.81096544    16
CTC2_L_00298017-04
1 10067U 26501IG  26075.70043981  .00000000  00000+0  00000-0 0  9999
2 10067  95.0000 192.0000 0000000   0.0000 102.0000 13.81096544    17
CTC2_L_00298018-01
1 10068U 25260MT  26075.70043981  .00000000  00000+0  00000-0 0  9991
2 10068  95.0000 204.0000 0000000   0.0000 204.0000 13.81096544    15
CTC2_L_00298018-02
1 10069U 24059KV  26075.70043981  .00000000  00000+0  00000-0 0  9997
2 10069  95.0000 204.0000 0000000   0.0000 294.0000 13.81096544    15
CTC2_L_00298018-03
1 10070U 26020WA  26075.70043981  .00000000  00000+0  00000-0 0  9999
2 10070  95.0000 204.0000 0000000   0.0000  24.0000 13.81096544    18
CTC2_L_00298018-04
1 10071U 26337AG  26075.70043981  .00000000  00000+0  00000-0 0  9991
2 10071  95.0000 204.0000 0000000   0.0000 114.0000 13.81096544    19
CTC2_L_00298019-01
1 10072U 26865OI  26075.70043981  .00000000  00000+0  00000-0 0  9998
2 10072  95.0000 216.0000 0000000   0.0000 216.0000 13.81096544    16
CTC2_L_00298019-02
1 10073U 24507NT  26075.70043981  .00000000  00000+0  00000-0 0  9990
2 10073  95.0000 216.0000 0000000   0.0000 306.0000 13.81096544    17
CTC2_L_00298019-03
1 10074U 23753Z   26075.70043981  .00000000  00000+0  00000-0 0  9993
2 10074  95.0000 216.0000 0000000   0.0000  36.0000 13.81096544    18
CTC2_L_00298019-04
1 10075U 26701FQ  26075.70043981  .00000000  00000+0  00000-0 0  9990
2 10075  95.0000 216.0000 0000000   0.0000 126.0000 13.81096544    19
CTC2_L_00298020-01
1 10076U 23843XI  26075.70043981  .00000000  00000+0  00000-0 0  9995
2 10076  95.0000 228.0000 0000000   0.0000 228.0000 13.81096544    16
CTC2_L_00298020-02
1 10077U 25702HS  26075.70043981  .00000000  00000+0  00000-0 0  9992
2 10077  95.0000 228.0000 0000000   0.0000 318.0000 13.81096544    17
CTC2_L_00298020-03
1 10078U 25405CU  26075.70043981  .00000000  00000+0  00000-0 0  9993
2 10078  95.0000 228.0000 0000000   0.0000  48.0000 13.81096544    18
CTC2_L_00298020-04
1 10079U 24725KP  26075.70043981  .00000000  00000+0  00000-0 0  9998
2 10079  95.0000 228.0000 0000000   0.0000 138.0000 13.81096544    19
CTC2_L_00298021-01
1 10080U 24935TA  26075.70043981  .00000000  00000+0  00000-0 0  9993
2 10080  95.0000 240.0000 0000000   0.0000 240.0000 13.81096544    19
CTC2_L_00298021-02
1 10081U 22795ZS  26075.70043981  .00000000  00000+0  00000-0 0  9996
2 10081  95.0000 240.0000 0000000   0.0000 330.0000 13.81096544    10
CTC2_L_00298021-03
1 10082U 23388NJ  26075.70043981  .00000000  00000+0  00000-0 0  9996
2 10082  95.0000 240.0000 0000000   0.0000  60.0000 13.81096544    11
CTC2_L_00298021-04
1 10083U 22236BO  26075.70043981  .00000000  00000+0  00000-0 0  9998
2 10083  95.0000 240.0000 0000000   0.0000 150.0000 13.81096544    12
CTC2_L_00298022-01
1 10084U 22635QT  26075.70043981  .00000000  00000+0  00000-0 0  9992
2 10084  95.0000 252.0000 0000000   0.0000 252.0000 13.81096544    19
CTC2_L_00298022-02
1 10085U 24403LX  26075.70043981  .00000000  00000+0  00000-0 0  9998
2 10085  95.0000 252.0000 0000000   0.0000 342.0000 13.81096544    10
CTC2_L_00298022-03
1 10086U 23586PM  26075.70043981  .00000000  00000+0  00000-0 0  9990
2 10086  95.0000 252.0000 0000000   0.0000  72.0000 13.81096544    11
CTC2_L_00298022-04
1 10087U 26137WY  26075.70043981  .00000000  00000+0  00000-0 0  9996
2 10087  95.0000 252.0000 0000000   0.0000 162.0000 13.81096544    12
CTC2_L_00298023-01
1 10088U 22861MK  26075.70043981  .00000000  00000+0  00000-0 0  9997
2 10088  95.0000 264.0000 0000000   0.0000 264.0000 13.81096544    19
CTC2_L_00298023-02
1 10089U 24227FD  26075.70043981  .00000000  00000+0  00000-0 0  9996
2 10089  95.0000 264.0000 0000000   0.0000 354.0000 13.81096544    10
CTC2_L_00298023-03
1 10090U 22674RP  26075.70043981  .00000000  00000+0  00000-0 0  9992
2 10090  95.0000 264.0000 0000000   0.0000  84.0000 13.81096544    12
CTC2_L_00298023-04
1 10091U 26913OS  26075.70043981  .00000000  00000+0  00000-0 0  9993
2 10091  95.0000 264.0000 0000000   0.0000 174.0000 13.81096544    13
CTC2_L_00298024-01
1 10092U 25944PU  26075.70043981  .00000000  00000+0  00000-0 0  9997
2 10092  95.0000 276.0000 0000000   0.0000 276.0000 13.81096544    10
CTC2_L_00298024-02
1 10093U 22755KC  26075.70043981  .00000000  00000+0  00000-0 0  9995
2 10093  95.0000 276.0000 0000000   0.0000   6.0000 13.81096544    12
CTC2_L_00298024-03
1 10094U 22043NG  26075.70043981  .00000000  00000+0  00000-0 0  9996
2 10094  95.0000 276.0000 0000000   0.0000  96.0000 13.81096544    12
CTC2_L_00298024-04
1 10095U 26756KZ  26075.70043981  .00000000  00000+0  00000-0 0  9992
2 10095  95.0000 276.0000 0000000   0.0000 186.0000 13.81096544    13
CTC2_L_00298025-01
1 10096U 25495QY  26075.70043981  .00000000  00000+0  00000-0 0  9992
2 10096  95.0000 288.0000 0000000   0.0000 288.0000 13.81096544    10
CTC2_L_00298025-02
1 10097U 26742LL  26075.70043981  .00000000  00000+0  00000-0 0  9999
2 10097  95.0000 288.0000 0000000   0.0000  18.0000 13.81096544    12
CTC2_L_00298025-03
1 10098U 25115QG  26075.70043981  .00000000  00000+0  00000-0 0  9993
2 10098  95.0000 288.0000 0000000   0.0000 108.0000 13.81096544    13
CTC2_L_00298025-04
1 10099U 23553QG  26075.70043981  .00000000  00000+0  00000-0 0  9998
2 10099  95.0000 288.0000 0000000   0.0000 198.0000 13.81096544    13
CTC2_L_00298026-01
1 10100U 25957CL  26075.70043981  .00000000  00000+0  00000-0 0  9991
2 10100  95.0000 300.0000 0000000   0.0000 300.0000 13.81096544    16
CTC2_L_00298026-02
1 10101U 25758YC  26075.70043981  .00000000  00000+0  00000-0 0  9991
2 10101  95.0000 300.0000 0000000   0.0000  30.0000 13.81096544    17
CTC2_L_00298026-03
1 10102U 25489UX  26075.70043981  .00000000  00000+0  00000-0 0  9993
2 10102  95.0000 300.0000 0000000   0.0000 120.0000 13.81096544    18
CTC2_L_00298026-04
1 10103U 24342PY  26075.70043981  .00000000  00000+0  00000-0 0  9991
2 10103  95.0000 300.0000 0000000   0.0000 210.0000 13.81096544    19
CTC2_L_00298027-01
1 10104U 26365YK  26075.70043981  .00000000  00000+0  00000-0 0  9999
2 10104  95.0000 312.0000 0000000   0.0000 312.0000 13.81096544    16
CTC2_L_00298027-02
1 10105U 23703FL  26075.70043981  .00000000  00000+0  00000-0 0  9993
2 10105  95.0000 312.0000 0000000   0.0000  42.0000 13.81096544    17
CTC2_L_00298027-03
1 10106U 22687ER  26075.70043981  .00000000  00000+0  00000-0 0  9994
2 10106  95.0000 312.0000 0000000   0.0000 132.0000 13.81096544    18
CTC2_L_00298027-04
1 10107U 22721QH  26075.70043981  .00000000  00000+0  00000-0 0  9994
2 10107  95.0000 312.0000 0000000   0.0000 222.0000 13.81096544    19
CTC2_L_00298028-01
1 10108U 24069XO  26075.70043981  .00000000  00000+0  00000-0 0  9992
2 10108  95.0000 324.0000 0000000   0.0000 324.0000 13.81096544    16
CTC2_L_00298028-02
1 10109U 23971HD  26075.70043981  .00000000  00000+0  00000-0 0  9994
2 10109  95.0000 324.0000 0000000   0.0000  54.0000 13.81096544    17
CTC2_L_00298028-03
1 10110U 24535PK  26075.70043981  .00000000  00000+0  00000-0 0  9993
2 10110  95.0000 324.0000 0000000   0.0000 144.0000 13.81096544    19
CTC2_L_00298028-04
1 10111U 26360GW  26075.70043981  .00000000  00000+0  00000-0 0  9992
2 10111  95.0000 324.0000 0000000   0.0000 234.0000 13.81096544    10
CTC2_L_00298029-01
1 10112U 26195QN  26075.70043981  .00000000  00000+0  00000-0 0  9999
2 10112  95.0000 336.0000 0000000   0.0000 336.0000 13.81096544    17
CTC2_L_00298029-02
1 10113U 25261WS  26075.70043981  .00000000  00000+0  00000-0 0  9993
2 10113  95.0000 336.0000 0000000   0.0000  66.0000 13.81096544    18
CTC2_L_00298029-03
1 10114U 25056FA  26075.70043981  .00000000  00000+0  00000-0 0  9996
2 10114  95.0000 336.0000 0000000   0.0000 156.0000 13.81096544    19
CTC2_L_00298029-04
1 10115U 23938CZ  26075.70043981  .00000000  00000+0  00000-0 0  9994
2 10115  95.0000 336.0000 0000000   0.0000 246.0000 13.81096544    10
CTC2_L_00298030-01
1 10116U 26755LE  26075.70043981  .00000000  00000+0  00000-0 0  9995
2 10116  95.0000 348.0000 0000000   0.0000 348.0000 13.81096544    17
CTC2_L_00298030-02
1 10117U 23732NZ  26075.70043981  .00000000  00000+0  00000-0 0  9998
2 10117  95.0000 348.0000 0000000   0.0000  78.0000 13.81096544    18
CTC2_L_00298030-03
1 10118U 24150TK  26075.70043981  .00000000  00000+0  00000-0 0  9994
2 10118  95.0000 348.0000 0000000   0.0000 168.0000 13.81096544    19
CTC2_L_00298030-04
1 10119U 22542SV  26075.70043981  .00000000  00000+0  00000-0 0  9998
2 10119  95.0000 348.0000 0000000   0.0000 258.0000 13.81096544    10
